CCSDS_OMM_VERS = 2.0
CREATION_DATE  = 
ORIGINATOR     = 

OBJECT_NAME    = STARLINK-36560
OBJECT_ID      = 2026-016AA
CENTER_NAME    = EARTH
REF_FRAME      = TEME
TIME_SYSTEM    = UTC
MEAN_ELEMENT_THEORY = SGP/SGP4

EPOCH          = 2026-01-30T18:00:02.000160
MEAN_MOTION    = 16.05533266
ECCENTRICITY   = .00011677
INCLINATION    = 97.2817
RA_OF_ASC_NODE = 89.1075
ARG_OF_PERICENTER = 73.9835
MEAN_ANOMALY   = 300.8972

EPHEMERIS_TYPE = 0
CLASSIFICATION_TYPE = U
NORAD_CAT_ID   = 67585
ELEMENT_SET_NO = 999
REV_AT_EPOCH   = 189
BSTAR          = -.20096759E-2
MEAN_MOTION_DOT = -.139913E-1
MEAN_MOTION_DDOT = .65104164E-3

CCSDS_OMM_VERS = 2.0
CREATION_DATE  = 
ORIGINATOR     = 

OBJECT_NAME    = CZ-2C DEB
OBJECT_ID      = 2026-009C
CENTER_NAME    = EARTH
REF_FRAME      = TEME
TIME_SYSTEM    = UTC
MEAN_ELEMENT_THEORY = SGP/SGP4

EPOCH          = 2026-01-31T12:23:27.367872
MEAN_MOTION    = 15.11034201
ECCENTRICITY   = .0112955
INCLINATION    = 97.2291
RA_OF_ASC_NODE = 105.4389
ARG_OF_PERICENTER = 165.5084
MEAN_ANOMALY   = 194.9431

EPHEMERIS_TYPE = 0
CLASSIFICATION_TYPE = U
NORAD_CAT_ID   = 67586
ELEMENT_SET_NO = 999
REV_AT_EPOCH   = 246
BSTAR          = .27339E-2
MEAN_MOTION_DOT = .53534E-3
MEAN_MOTION_DDOT = 0

CCSDS_OMM_VERS = 2.0
CREATION_DATE  = 
ORIGINATOR     = 

OBJECT_NAME    = CZ-2C DEB
OBJECT_ID      = 2026-009D
CENTER_NAME    = EARTH
REF_FRAME      = TEME
TIME_SYSTEM    = UTC
MEAN_ELEMENT_THEORY = SGP/SGP4

EPOCH          = 2026-01-31T13:29:41.181216
MEAN_MOTION    = 15.12705601
ECCENTRICITY   = .010925
INCLINATION    = 97.6748
RA_OF_ASC_NODE = 106.3550
ARG_OF_PERICENTER = 170.7314
MEAN_ANOMALY   = 189.5968

EPHEMERIS_TYPE = 0
CLASSIFICATION_TYPE = U
NORAD_CAT_ID   = 67587
ELEMENT_SET_NO = 999
REV_AT_EPOCH   = 247
BSTAR          = .19767E-2
MEAN_MOTION_DOT = .40176E-3
MEAN_MOTION_DDOT = 0

CCSDS_OMM_VERS = 2.0
CREATION_DATE  = 
ORIGINATOR     = 

OBJECT_NAME    = NAVSTAR 85 (USA 581)
OBJECT_ID      = 2026-017A
CENTER_NAME    = EARTH
REF_FRAME      = TEME
TIME_SYSTEM    = UTC
MEAN_ELEMENT_THEORY = SGP/SGP4

EPOCH          = 2026-01-28T18:17:22.544736
MEAN_MOTION    = 4.03376750
ECCENTRICITY   = .59408377
INCLINATION    = 55.0007
RA_OF_ASC_NODE = 99.1396
ARG_OF_PERICENTER = 270.1415
MEAN_ANOMALY   = 26.1406

EPHEMERIS_TYPE = 0
CLASSIFICATION_TYPE = U
NORAD_CAT_ID   = 67588
ELEMENT_SET_NO = 999
REV_AT_EPOCH   = 4
BSTAR          = .32093292E-3
MEAN_MOTION_DOT = .346E-5
MEAN_MOTION_DDOT = 0

CCSDS_OMM_VERS = 2.0
CREATION_DATE  = 
ORIGINATOR     = 

OBJECT_NAME    = NEONSAT-1A
OBJECT_ID      = 2026-019A
CENTER_NAME    = EARTH
REF_FRAME      = TEME
TIME_SYSTEM    = UTC
MEAN_ELEMENT_THEORY = SGP/SGP4

EPOCH          = 2026-01-31T11:29:54.048192
MEAN_MOTION    = 15.07496786
ECCENTRICITY   = .0012056
INCLINATION    = 97.4093
RA_OF_ASC_NODE = 156.4016
ARG_OF_PERICENTER = 305.2613
MEAN_ANOMALY   = 54.7487

EPHEMERIS_TYPE = 0
CLASSIFICATION_TYPE = U
NORAD_CAT_ID   = 67614
ELEMENT_SET_NO = 999
REV_AT_EPOCH   = 21
BSTAR          = .34826E-3
MEAN_MOTION_DOT = .5233E-4
MEAN_MOTION_DDOT = 0

CCSDS_OMM_VERS = 2.0
CREATION_DATE  = 
ORIGINATOR     = 

OBJECT_NAME    = ELECTRON R/B
OBJECT_ID      = 2026-019B
CENTER_NAME    = EARTH
REF_FRAME      = TEME
TIME_SYSTEM    = UTC
MEAN_ELEMENT_THEORY = SGP/SGP4

EPOCH          = 2026-01-31T17:53:30.098400
MEAN_MOTION    = 15.69235212
ECCENTRICITY   = .0259152
INCLINATION    = 97.4470
RA_OF_ASC_NODE = 156.8497
ARG_OF_PERICENTER = 220.4311
MEAN_ANOMALY   = 137.7440

EPHEMERIS_TYPE = 0
CLASSIFICATION_TYPE = U
NORAD_CAT_ID   = 67615
ELEMENT_SET_NO = 999
REV_AT_EPOCH   = 26
BSTAR          = .25521E-3
MEAN_MOTION_DOT = .250226E-2
MEAN_MOTION_DDOT = .22837E-5

CCSDS_OMM_VERS = 2.0
CREATION_DATE  = 
ORIGINATOR     = 

OBJECT_NAME    = ELECTRON KICK STAGE R/B
OBJECT_ID      = 2026-019C
CENTER_NAME    = EARTH
REF_FRAME      = TEME
TIME_SYSTEM    = UTC
MEAN_ELEMENT_THEORY = SGP/SGP4

EPOCH          = 2026-01-31T18:14:22.606368
MEAN_MOTION    = 15.53913180
ECCENTRICITY   = .020782
INCLINATION    = 97.4031
RA_OF_ASC_NODE = 156.7817
ARG_OF_PERICENTER = 255.9499
MEAN_ANOMALY   = 101.8576

EPHEMERIS_TYPE = 0
CLASSIFICATION_TYPE = U
NORAD_CAT_ID   = 67616
ELEMENT_SET_NO = 999
REV_AT_EPOCH   = 26
BSTAR          = .21952E-3
MEAN_MOTION_DOT = .37009E-3
MEAN_MOTION_DDOT = .25655E-5

